0 ONEWEB-0394
1 50474U 21132F   24160.44011571  .00000093  00000-0  20387-3 0  9990
2 50474  87.9131 122.5179 0001957  85.0054 275.1301 13.18687668125508
0 ONEWEB-0393
1 50473U 21132E   24160.95383432  .00000093  00000-0  20762-3 0  9990
2 50473  87.9167 152.7874 0001755  85.3069 274.8263 13.17651393120893
0 ONEWEB-0392
1 50472U 21132D   24161.51215272  .00000012  00000-0 -18530-5 0  9992
2 50472  87.9155 152.7017 0001746  84.4970 275.6360 13.17646939122269
0 ONEWEB-0391
1 50471U 21132C   24161.48209797  .00000003  00000-0 -25422-4 0  9999
2 50471  87.9171 152.7057 0001613  91.3609 268.7707 13.17647255122225
0 ONEWEB-0390
1 50470U 21132B   24161.48051895 -.00000014  00000-0 -68064-4 0  9994
2 50470  87.9163 152.7236 0002027  77.4772 282.6586 13.17647495122226
0 ONEWEB-0389
1 50469U 21132A   24161.47892706  .00000043  00000-0  76342-4 0  9993
2 50469  87.9163 152.7162 0001581  84.7462 275.3850 13.17651074122224
0 ONEWEB-0388
1 49314U 21090AM  24161.33135265  .00000044  00000-0  76326-4 0  9991
2 49314  87.9155  91.8106 0002054  84.9655 275.1712 13.19723726130382
0 ONEWEB-0387
1 49313U 21090AL  24160.96521775  .00000134  00000-0  29676-3 0  9998
2 49313  87.9218  61.3848 0001562  75.8853 284.2454 13.20770825132377
